QIANFAN-17              
1 60395U 24140S   25240.89526338  .00000113  00000+0  15554-3 0  9998
2 60395  88.9831 310.3783 0016554 146.0405 214.1809 13.50966615 53845
QIANFAN-18              
1 60396U 24140T   25240.87477400  .00000105  00000+0  14386-3 0  9995
2 60396  88.9823 309.9223 0016269 130.4718 229.7854 13.50968471 53234
QIANFAN-19              
1 61552U 24185A   25240.87607869  .00000442  00000+0  22510-3 0  9995
2 61552  88.9769  90.0882 0005055 294.4312  65.6347 14.14134534 54702
QIANFAN-20              
1 61553U 24185B   25240.92550061  .00000435  00000+0  24497-3 0  9991
2 61553  88.9768  90.2997 0005179 340.2444  19.8538 14.08687254 54599
QIANFAN-21              
1 61554U 24185C   25240.88310335  .00000724  00000+0  31900-3 0  9993
2 61554  88.9683  89.3943 0010712 359.9706   0.1483 14.22390758 54928
QIANFAN-22              
1 61555U 24185D   25240.90138349  .00000215  00000+0  17476-3 0  9997
2 61555  88.9754  90.8578 0005785 335.8925  24.1974 13.86245965 54276
QIANFAN-23              
1 61556U 24185E   25240.92956057  .00000604  00000+0  29883-3 0  9991
2 61556  88.9762  89.9407 0006163 309.3579  50.7062 14.16109475 54775
QIANFAN-24              
1 61557U 24185F   25240.90496480  .00000718  00000+0  30888-3 0  9992
2 61557  88.9742  89.5218 0007537 289.9596  70.0784 14.23590647 54968
